QIANFAN-103             
1 66045U 25233N   26063.75410897  .00000031  00000+0  29054-4 0  9991
2 66045  88.9935  53.7489 0001894  91.5552 268.5816 13.51006116 19088
QIANFAN-104             
1 66046U 25233P   26063.75801108  .00000031  00000+0  29600-4 0  9998
2 66046  88.9939  53.6459 0002083  86.0207 274.1182 13.51010174 19130
QIANFAN-105             
1 66047U 25233Q   26063.76616079  .00000020  00000+0  13131-4 0  9991
2 66047  88.9952  53.4743 0002024  92.5618 267.5765 13.50981395 19249
QIANFAN-106             
1 66048U 25233R   26063.76229025  .00000029  00000+0  26935-4 0  9998
2 66048  88.9922  53.7204 0002386  86.3892 273.7532 13.51005133 19090
QIANFAN-107             
1 66049U 25233S   26063.77054825  .00000038  00000+0  40142-4 0  9990
2 66049  88.9937  53.7354 0001922  90.6193 269.5178 13.51003177 19095
QIANFAN-108             
1 66050U 25233T   26063.77465362  .00000046  00000+0  51995-4 0  9991
2 66050  88.9930  53.7301 0002339  86.0319 274.1099 13.51004712 19094
