[{"OBJECT_NAME":"QIANFAN-103","OBJECT_ID":"2025-233N","EPOCH":"2026-03-04T18:05:55.015008","MEAN_MOTION":13.51006116,"ECCENTRICITY":0.0001894,"INCLINATION":88.9935,"RA_OF_ASC_NODE":53.7489,"ARG_OF_PERICENTER":91.5552,"MEAN_ANOMALY":268.5816,"EPHEMERIS_TYPE":0,"CLASSIFICATION_TYPE":"U","NORAD_CAT_ID":66045,"ELEMENT_SET_NO":999,"REV_AT_EPOCH":1908,"BSTAR":2.9054e-5,"MEAN_MOTION_DOT":3.1e-7,"MEAN_MOTION_DDOT":0},{"OBJECT_NAME":"QIANFAN-104","OBJECT_ID":"2025-233P","EPOCH":"2026-03-04T18:11:32.157312","MEAN_MOTION":13.51010174,"ECCENTRICITY":0.0002083,"INCLINATION":88.9939,"RA_OF_ASC_NODE":53.6459,"ARG_OF_PERICENTER":86.0207,"MEAN_ANOMALY":274.1182,"EPHEMERIS_TYPE":0,"CLASSIFICATION_TYPE":"U","NORAD_CAT_ID":66046,"ELEMENT_SET_NO":999,"REV_AT_EPOCH":1913,"BSTAR":2.96e-5,"MEAN_MOTION_DOT":3.1e-7,"MEAN_MOTION_DDOT":0},{"OBJECT_NAME":"QIANFAN-105","OBJECT_ID":"2025-233Q","EPOCH":"2026-03-04T18:23:16.292256","MEAN_MOTION":13.50981395,"ECCENTRICITY":0.0002024,"INCLINATION":88.9952,"RA_OF_ASC_NODE":53.4743,"ARG_OF_PERICENTER":92.5618,"MEAN_ANOMALY":267.5765,"EPHEMERIS_TYPE":0,"CLASSIFICATION_TYPE":"U","NORAD_CAT_ID":66047,"ELEMENT_SET_NO":999,"REV_AT_EPOCH":1924,"BSTAR":1.3131e-5,"MEAN_MOTION_DOT":2.0e-7,"MEAN_MOTION_DDOT":0},{"OBJECT_NAME":"QIANFAN-106","OBJECT_ID":"2025-233R","EPOCH":"2026-03-04T18:17:41.877600","MEAN_MOTION":13.51005133,"ECCENTRICITY":0.0002386,"INCLINATION":88.9922,"RA_OF_ASC_NODE":53.7204,"ARG_OF_PERICENTER":86.3892,"MEAN_ANOMALY":273.7532,"EPHEMERIS_TYPE":0,"CLASSIFICATION_TYPE":"U","NORAD_CAT_ID":66048,"ELEMENT_SET_NO":999,"REV_AT_EPOCH":1909,"BSTAR":2.6935e-5,"MEAN_MOTION_DOT":2.9e-7,"MEAN_MOTION_DDOT":0},{"OBJECT_NAME":"QIANFAN-107","OBJECT_ID":"2025-233S","EPOCH":"2026-03-04T18:29:35.368800","MEAN_MOTION":13.51003177,"ECCENTRICITY":0.0001922,"INCLINATION":88.9937,"RA_OF_ASC_NODE":53.7354,"ARG_OF_PERICENTER":90.6193,"MEAN_ANOMALY":269.5178,"EPHEMERIS_TYPE":0,"CLASSIFICATION_TYPE":"U","NORAD_CAT_ID":66049,"ELEMENT_SET_NO":999,"REV_AT_EPOCH":1909,"BSTAR":4.0142e-5,"MEAN_MOTION_DOT":3.8e-7,"MEAN_MOTION_DDOT":0},{"OBJECT_NAME":"QIANFAN-108","OBJECT_ID":"2025-233T","EPOCH":"2026-03-04T18:35:30.072768","MEAN_MOTION":13.51004712,"ECCENTRICITY":0.0002339,"INCLINATION":88.993,"RA_OF_ASC_NODE":53.7301,"ARG_OF_PERICENTER":86.0319,"MEAN_ANOMALY":274.1099,"EPHEMERIS_TYPE":0,"CLASSIFICATION_TYPE":"U","NORAD_CAT_ID":66050,"ELEMENT_SET_NO":999,"REV_AT_EPOCH":1909,"BSTAR":5.1995e-5,"MEAN_MOTION_DOT":4.6e-7,"MEAN_MOTION_DDOT":0}]
